"spkid","full_name","pdes","name","prefix","neo","pha","sats","H","G","M1","M2","K1","K2","PC","diameter","extent","albedo","rot_per","GM","BV","UB","IR","spec_B","spec_T","H_sigma","diameter_sigma","orbit_id","epoch","epoch_mjd","epoch_cal","equinox","e","a","q","i","om","w","ma","ad","n","tp","tp_cal","per","per_y","moid","moid_ld","moid_jup","t_jup","sigma_e","sigma_a","sigma_q","sigma_i","sigma_om","sigma_w","sigma_ma","sigma_ad","sigma_n","sigma_tp","sigma_per","class","producer","data_arc","first_obs","last_obs","n_obs_used","n_del_obs_used","n_dop_obs_used","condition_code","rms","two_body","A1","A1_sigma","A2","A2_sigma","A3","A3_sigma","DT","DT_sigma"
3031900,"       (1999 OK4)","1999 OK4",,,N,N,0,7.6,,,,,,,,,,,,,,,,,,,4,2460200.5,60200,2023-09-13.0000000,J2000,.1527051872516222,43.41519028573502,36.78546552358705,29.96957465439471,122.3749235885307,66.16705585359806,128.4238501804357,50.04491504788299,.003445414765916607,2422926.656673253165,1921-08-25.1566733,104486.6944790686,286.068978724349,35.8988,13970.735996,31.9226,5.066,.0018852,.06899,.086986,.002333,.00031633,.55743,.81766,.079525,8.2125E-6,166.04,249.05,TNO,"Otto Matic",1451,1999-07-19,2003-07-09,20,,,5,.22497,,,,,,,,,
3031905,"       (1999 RS214)","1999 RS214",,,N,N,0,7.8884,,,,,,,,,,,,,,,,,.32767,,"JPL 6",2451436.5,51436,1999-09-15.0000000,J2000,.03548103734161237,44.26440379994059,42.69385683581069,3.094684672560247,139.5303985398495,165.0813212036661,12.75415275410046,45.83495076407048,.003346741317110218,2447625.583187010945,1989-04-09.0831870,107567.321728602,294.503276464345,41.678,16219.82726,37.5556,5.939,15.673,238.03,923.28,14.451,6.2066,154200.,143420.,246.47,.026995,4.2824E7,867650.,TNO,"Otto Matic",33,1999-09-06,1999-10-09,10,,,9,.17019,,,,,,,,,
3031906,"       (1999 RT214)","1999 RT214",,,N,N,1,7.79,,,,,,,,,,,,,,,,,,,6,2460200.5,60200,2023-09-13.0000000,J2000,.05337480130845067,42.85931708651126,40.57170955280284,2.574156524776434,138.0163598257238,211.4120411570464,2.725183549414438,45.14692462021969,.003512660715410702,2459424.682529938475,2021-07-29.1825299,102486.4139085829,280.59250898996,39.5653,15397.627801,35.5948,5.847,.00030346,.018742,.0047545,.00033936,.0015918,.13517,.11959,.019743,2.3041E-6,34.539,67.226,TNO,"Otto Matic",8007,1999-09-06,2021-08-08,47,,,4,.44689,,,,,,,,,
3031907,"       (1999 RU214)","1999 RU214",,,N,N,0,6.97,,,,,,,,,,,,,,,,,,,5,2460200.5,60200,2023-09-13.0000000,J2000,.3386505596024743,56.01080415617314,37.04271398490052,4.253799985163036,137.8172778813155,108.9469358217183,60.17331966026368,74.97889432744577,.002351236754332255,2434608.300682176414,1953-08-18.8006822,153110.9103907484,419.194826531823,36.031,14022.18427,31.6908,6.250,.00014046,.024506,.0090913,.00046619,.0015237,.043199,.055378,.032805,1.5431E-6,6.7625,100.49,TNO,"Otto Matic",8007,1999-09-06,2021-08-08,23,,,4,.11617,,,,,,,,,
3031908,"       (1999 RV214)","1999 RV214",,,N,N,0,7.9,,,,,,,,,,,,,,,,,,,"JPL 7",2456305.5,56305,2013-01-13.0000000,J2000,.03521298337282164,46.73949945093261,45.09366223391291,1.108957292324268,144.6958391982748,343.3189176949357,210.6204667124329,48.3853366679523,.003084451801911889,2504735.348440158690,2145-08-18.8484402,116714.419002059,319.546663934453,44.1088,17165.821696,39.7756,6.101,.075095,1.814,5.2592,.0020121,.010158,152.05,165.82,1.8779,.00017957,56574.,6794.8,TNO,"Otto Matic",5743,1999-09-06,2015-05-28,13,,,8,.14622,,,,,,,,,
3031909,"       (1999 RW214)","1999 RW214",,,N,N,0,7.3,,,,,,,,,,,,,,,,,,,10,2460200.5,60200,2023-09-13.0000000,J2000,.02922182211462069,43.25467976178513,41.99069920416136,1.358866954236475,.2774256256233732,283.2732726136308,104.8291023378528,44.5186603194089,.003464610540586602,2429943.389969934702,1940-11-09.8899699,103907.7829333878,284.484005293327,40.9739,15945.812663,36.761,5.883,.0001174,.015418,.018202,.00027421,.0031845,.54258,.54428,.015868,1.8524E-6,140.92,55.556,TNO,"Otto Matic",6531,1998-09-25,2016-08-12,29,,,4,.45566,,,,,,,,,
3031910,"       (1999 RX214)","1999 RX214",,,N,N,0,6.8,,,,,,,,,,,,,,,,,,,9,2460200.5,60200,2023-09-13.0000000,J2000,.1687763660074784,46.47654416657058,38.63240193755072,4.804297830182552,3.700562775079952,268.4013715479637,101.3763074869588,54.32068639559043,.003110665639198002,2427610.591843527163,1934-06-22.0918435,115730.8569148614,316.853817699826,37.6191,14640.225147,33.3951,5.983,8.5386E-5,.013376,.01271,.00034582,.00094172,.073859,.081978,.015633,1.3429E-6,12.468,49.96,TNO,"Otto Matic",6531,1999-09-06,2017-07-24,30,,,4,.21258,,,,,,,,,
3031912,"       (1999 RZ214)","1999 RZ214",,,N,N,0,7.8,,,,,,,,,,,,,,,,,,,6,2460200.5,60200,2023-09-13.0000000,J2000,.5733744040070142,86.29031722716535,36.81365801546323,20.42930892116725,214.4772174318929,115.0413851566337,19.86682823542958,135.7669764388675,.001229591848934819,2444043.245661790148,1979-06-18.7456618,292780.0800825605,801.588172710638,35.8558,13954.001686,32.1238,6.313,.00032467,.082412,.0086641,.00027632,.00025201,.031544,.033836,.12966,1.7615E-6,4.648,419.43,TNO,"Otto Matic",6591,1999-09-06,2017-09-22,17,,,4,.19662,,,,,,,,,
3031914,"       (1999 RB215)","1999 RB215",,,N,N,0,9.4,,,,,,,,,,,,,,,,,,,5,2460200.5,60200,2023-09-13.0000000,J2000,.3462091383245562,48.11824333069089,31.45926776948107,7.843162263364611,4.884610907608038,348.7395259809277,31.76969923780116,64.7772188919007,.002952836685855591,2449441.456199853015,1994-03-29.9561999,121916.6646514652,333.789636280534,30.4542,11851.861014,26.492,5.761,.00029938,.027363,.0037058,.00021603,.00060525,.02793,.038337,.036837,2.5188E-6,4.1902,104.,TNO,"Otto Matic",4433,1999-09-06,2011-10-26,23,,,4,.18772,,,,,,,,,
3031918,"       (1999 RF215)","1999 RF215",,,N,N,0,7.4,,,,,,,,,,,,,,,,,,,"JPL 6",2451457.5,51457,1999-10-06.0000000,J2000,3.052504727746322E-5,43.96542133018161,43.96407928361693,3.674892666693373,327.5791259856492,344.1548884702967,16.02970626675968,43.96676337674629,.003380938062421681,2446716.299193949738,1986-10-12.7991939,106479.3241855904,291.524501534813,42.948,16714.07316,38.5121,5.920,3.8357,34.134,202.77,1.9333,.033124,3.0786E7,3.0784E7,34.135,.0039373,9.1052E9,1.24E5,TNO,"Otto Matic",65,1999-09-07,1999-11-11,8,,,9,.1256,,,,,,,,,
3031919,"       (1999 RG215)","1999 RG215",,,N,N,0,7.30,,,,,,,,,,,,,,,,,,,"JPL 8",2460200.5,60200,2023-09-13.0000000,J2000,.07811917220769321,46.80849196847473,43.15185132360703,.2416491899680054,292.4030327124472,110.9653478731919,328.8699669122016,50.46513261334244,.003077634908681684,2470315.420713949479,2051-05-23.9207139,116972.9388578476,320.254452725113,42.1599,16407.368283,38.169,6.091,.0001446,.011415,.0043371,.00012637,.059337,.10614,.084994,.012307,1.1258E-6,24.02,42.789,TNO,"Otto Matic",8006,1999-09-07,2021-08-08,39,,,4,.22684,,,,,,,,,
3031196,"       (1999 RR215)","1999 RR215",,,N,N,0,8.1,,,,,,,,,,,,,,,,,,,"JPL 4",2451724.5,51724,2000-06-29.0000000,J2000,.1054011268047238,44.44175812803635,39.75754674415833,1.17877025423321,185.8748552942357,151.1876943976359,29.166951065848,49.12596951191438,.003326727488661285,2442957.039736043986,1976-06-27.5397360,108214.4543630378,296.275029056914,38.7473,15079.286741,34.7504,5.928,.11863,1.2161,4.1845,.006852,.037673,90.575,68.573,1.3443,.00013655,20973.,4441.7,TNO,"Otto Matic",478,1999-09-07,2000-12-28,14,,,8,.14241,,,,,,,,,
3031197,"       (1999 RT215)","1999 RT215",,,N,N,0,7.0943,,,,,,,,,,,,,,,,,.20847,,"JPL 6",2451450.5,51450,1999-09-29.0000000,J2000,.004002420515563196,43.15949937547255,42.98675690973072,21.87904411726894,192.898278113383,116.779013327731,62.62661066125455,43.33224184121438,.003476077704800175,2433434.041226718728,1950-06-01.5412267,103565.0035966888,283.545526616533,42.0207,16353.195819,37.7465,5.466,.39548,28.201,42.263,11.452,.086375,14158.,14074.,28.314,.003407,4031200.,101510.,TNO,"Otto Matic",63,1999-09-07,1999-11-09,9,,,9,.092569,,,,,,,,,
3031199,"       (1999 RV215)","1999 RV215",,,N,N,0,8.4,,,,,,,,,,,,,,,,,,,5,2460200.5,60200,2023-09-13.0000000,J2000,.1895723364970988,45.02113763929563,36.48637538525688,21.97325500883036,351.7092017315256,27.23521750888418,27.16597430016648,53.55589989333439,.003262716779244338,2451874.317821705550,2000-11-25.8178217,110337.496129032,302.087600627055,35.5023,13816.430091,31.6322,5.472,.00025343,.017646,.0036063,.00041875,.00066495,.087669,.065789,.020991,1.9183E-6,17.97,64.871,TNO,"Otto Matic",5524,1999-09-07,2014-10-22,16,,,4,.17526,,,,,,,,,
3031200,"       (1999 RW215)","1999 RW215",,,N,N,0,7.95,,,,,,,,,,,,,,,,,,,7,2460200.5,60200,2023-09-13.0000000,J2000,.1624758075621701,36.61977694525645,30.66994911332938,10.52860110786595,252.9350156747911,187.0368482714541,349.9211703886162,42.56960477718354,.004447649263205477,2462466.602611724331,2029-11-26.1026117,80941.63426469098,221.606117083343,29.6847,11552.394699,25.5706,5.289,.0001973,.013363,.0040337,.00015734,.00089613,.058578,.046043,.015535,2.4346E-6,9.1206,44.306,TNO,"Otto Matic",7797,1999-09-07,2021-01-11,21,,,4,.26627,,,,,,,,,
3031201,"       (1999 RX215)","1999 RX215",,,N,N,0,7.43,,,,,,,,,,,,,,,,,,,7,2460200.5,60200,2023-09-13.0000000,J2000,.1429895300234351,47.29655597915229,40.53364366796622,.891991828565972,99.30776353032,189.2420720320762,52.42197888904848,54.05946829033837,.003030119787411099,2442900.200814852189,1976-05-01.7008149,118807.1842887704,325.276343021959,39.5167,15378.714139,35.345,6.077,.00024729,.023522,.0086532,.00015507,.016255,.10423,.11256,.026886,2.2605E-6,24.301,88.631,TNO,"Otto Matic",8389,1999-09-08,2022-08-27,22,,,4,.13764,,,,,,,,,
3031925,"       (1999 RC216)","1999 RC216",,,N,N,0,7.3,,,,,,,,,,,,,,,,,.24193,,"JPL 6",2451452.5,51452,1999-10-01.0000000,J2000,.08063187697492671,44.40479097625117,40.82434933315675,.5883468895719643,190.5360533687075,344.3150152433643,180.0907076754816,47.9852326193456,.00333088262245487,2505464.998402577985,2147-08-18.4984026,108079.4614535768,295.905438613489,39.83,15500.6411,35.3741,5.940,.85864,32.075,67.616,.35539,9.6673,4895.1,5724.1,34.661,.003609,1.66E6,117100.,TNO,"Otto Matic",62,1999-09-08,1999-11-09,10,,,9,.2458,,,,,,,,,
